OBJECT_NAME,OBJECT_ID,EPOCH,MEAN_MOTION,ECCENTRICITY,INCLINATION,RA_OF_ASC_NODE,ARG_OF_PERICENTER,MEAN_ANOMALY,EPHEMERIS_TYPE,CLASSIFICATION_TYPE,NORAD_CAT_ID,ELEMENT_SET_NO,REV_AT_EPOCH,BSTAR,MEAN_MOTION_DOT,MEAN_MOTION_DDOT
ONEWEB-0473,2022-012AH,2026-06-19T14:54:16.333632,13.10263220,.00018236,87.8822,35.7918,81.4115,278.7219,0,U,51653,999,20962,-.75465581E-3,-.25E-5,0
ONEWEB-0474,2022-012AJ,2026-06-19T14:42:12.990240,13.10298148,.00015443,87.8839,35.7780,75.4996,284.6302,0,U,51654,999,20961,.18221558E-2,.648E-5,0
ONEWEB-0475,2022-012AK,2026-06-19T13:49:58.285920,13.17648599,.0001418,87.9132,5.3973,71.2312,288.8974,0,U,51655,999,21400,-.63115682E-4,-.12E-6,0
ONEWEB-0490,2022-138A,2026-06-19T18:54:58.313952,13.19724968,.00017397,87.9180,304.4486,103.0880,257.0447,0,U,54113,999,17717,.10310378E-3,.54E-6,0
ONEWEB-0492,2022-138B,2026-06-19T19:31:21.987552,13.19726213,.0001874,87.9174,304.4449,107.4343,252.6995,0,U,54114,999,17718,-.59814986E-4,-.11E-6,0
ONEWEB-0495,2022-138C,2026-06-19T15:21:10.088640,13.19724842,.00013377,87.9171,304.4820,113.2308,246.8966,0,U,54115,999,17714,-.1860686E-5,.12E-6,0
ONEWEB-0497,2022-138D,2026-06-19T17:28:32.424384,13.19725070,.0001816,87.9180,304.4564,101.5185,258.6152,0,U,54116,999,17714,.68548879E-4,.4E-6,0
ONEWEB-0499,2022-138E,2026-06-19T07:58:46.234848,13.19726610,.00016125,87.9172,304.5443,99.2650,260.8665,0,U,54117,999,17710,.2179388E-3,.1E-5,0
ONEWEB-0500,2022-138F,2026-06-19T15:18:53.459136,13.19724397,.00019784,87.9179,304.4779,100.8513,259.2842,0,U,54118,999,17715,.22336492E-3,.102E-5,0
ONEWEB-0501,2022-138G,2026-06-19T19:40:27.532704,13.19724169,.00014864,87.9182,304.4411,107.8949,252.2346,0,U,54119,999,17715,-.71824286E-4,-.16E-6,0
ONEWEB-0502,2022-138H,2026-06-19T19:19:58.863360,13.19724483,.00016023,87.9181,304.4331,97.5894,262.5421,0,U,54120,999,17717,.49340635E-4,.33E-6,0
ONEWEB-0503,2022-138J,2026-06-19T15:25:42.992544,13.19724985,.0001912,87.9184,304.4714,91.1670,268.9682,0,U,54121,999,17714,.16063551E-3,.77E-6,0
ONEWEB-0504,2022-138K,2026-06-19T18:45:52.671168,13.19725389,.00016474,87.9183,304.4485,97.6047,262.5273,0,U,54122,999,17717,.18789778E-3,.88E-6,0
ONEWEB-0505,2022-138L,2026-06-19T18:41:19.575456,13.19726872,.00013318,87.9188,304.4494,102.5062,257.6220,0,U,54123,999,17715,-.52193006E-4,-.8E-7,0
ONEWEB-0506,2022-138M,2026-06-19T18:04:55.415424,13.19723631,.00015432,87.9182,304.4523,103.6433,256.4872,0,U,54124,999,17714,-.30868142E-3,-.111E-5,0
ONEWEB-0507,2022-138N,2026-06-19T18:34:30.273600,13.19725482,.0001702,87.9171,304.4602,103.1592,256.9731,0,U,54125,999,17719,.15704557E-3,.76E-6,0
ONEWEB-0508,2022-138P,2026-06-19T18:29:56.688864,13.19724988,.0001579,87.9171,304.4603,110.9020,249.2282,0,U,54126,999,17717,.12001242E-3,.61E-6,0
ONEWEB-0509,2022-138Q,2026-06-19T19:42:43.497792,13.19725319,.00017293,87.9183,304.4400,101.2828,258.8499,0,U,54127,999,17715,-.24660983E-4,.3E-7,0
ONEWEB-0510,2022-138R,2026-06-19T18:48:14.898528,13.20772693,.00023908,87.9200,273.9185,94.1921,265.9486,0,U,54128,999,17962,.82058713E-4,.46E-6,0
ONEWEB-0511,2022-138S,2026-06-19T19:38:11.002560,13.19726865,.00017017,87.9179,304.4429,92.7236,267.4091,0,U,54129,999,17718,-.10934433E-3,-.31E-6,0
ONEWEB-0512,2022-138T,2026-06-19T19:26:48.404544,13.19724713,.00015388,87.9171,304.4496,98.0043,262.1265,0,U,54130,999,17715,-.95258761E-4,-.25E-6,0
ONEWEB-0513,2022-138U,2026-06-19T19:33:20.078208,13.20271900,.00009052,87.9180,304.3925,78.0659,282.0576,0,U,54131,999,17706,.79285013E-3,.333E-5,0
ONEWEB-0514,2022-138V,2026-06-19T14:22:01.446240,13.19725438,.00020139,87.9182,304.4858,96.8466,263.2896,0,U,54132,999,17714,.19588848E-3,.91E-6,0
ONEWEB-0515,2022-138W,2026-06-19T18:28:51.334176,13.20770733,.00027924,87.9202,273.9159,108.3211,251.8227,0,U,54133,999,17964,.71637076E-4,.42E-6,0
ONEWEB-0516,2022-138X,2026-06-19T19:13:09.148512,13.19725322,.00018791,87.9170,304.4517,104.2608,255.8733,0,U,54134,999,17717,.12208001E-3,.62E-6,0
ONEWEB-0517,2022-138Y,2026-06-19T18:43:35.655456,13.19724712,.00019138,87.9178,304.4481,89.9946,270.1406,0,U,54135,999,17717,.97508783E-4,.52E-6,0
ONEWEB-0518,2022-138Z,2026-06-19T15:32:32.769600,13.19727956,.0001887,87.9171,304.4842,105.5178,254.6163,0,U,54136,999,17715,.5689496E-4,.36E-6,0
ONEWEB-0519,2022-138AA,2026-06-19T19:47:16.984032,13.19726797,.00018777,87.9185,304.4405,92.7513,267.3835,0,U,54137,999,17718,-.46886026E-4,-.6E-7,0
ONEWEB-0520,2022-138AB,2026-06-19T18:48:09.087264,13.19725061,.00016379,87.9182,304.4486,103.7801,256.3514,0,U,54138,999,17716,.17384516E-3,.83E-6,0
ONEWEB-0521,2022-138AC,2026-06-19T19:35:54.278880,13.19725712,.00019167,87.9184,304.4307,92.4191,267.7162,0,U,54139,999,17711,-.69589486E-4,-.15E-6,0
