ONEWEB-0473             
1 51653U 22012AH  26170.62102238 -.00000250  00000+0 -75466-3 0  9996
2 51653  87.8822  35.7918 0001823  81.4115 278.7219 13.10263220209629
ONEWEB-0474             
1 51654U 22012AJ  26170.61265035  .00000648  00000+0  18222-2 0  9996
2 51654  87.8839  35.7780 0001544  75.4996 284.6302 13.10298148209610
ONEWEB-0475             
1 51655U 22012AK  26170.57636905 -.00000012  00000+0 -63116-4 0  9991
2 51655  87.9132   5.3973 0001418  71.2312 288.8974 13.17648599214007
ONEWEB-0490             
1 54113U 22138A   26170.78817493  .00000054  00000+0  10310-3 0  9999
2 54113  87.9180 304.4486 0001739 103.0880 257.0447 13.19724968177170
ONEWEB-0492             
1 54114U 22138B   26170.81344893 -.00000011  00000+0 -59815-4 0  9992
2 54114  87.9174 304.4449 0001874 107.4343 252.6995 13.19726213177180
ONEWEB-0495             
1 54115U 22138C   26170.63970010  .00000012  00000+0 -18607-5 0  9994
2 54115  87.9171 304.4820 0001337 113.2308 246.8966 13.19724842177146
ONEWEB-0497             
1 54116U 22138D   26170.72815306  .00000040  00000+0  68549-4 0  9990
2 54116  87.9180 304.4564 0001816 101.5185 258.6152 13.19725070177149
ONEWEB-0499             
1 54117U 22138E   26170.33247957  .00000100  00000+0  21794-3 0  9996
2 54117  87.9172 304.5443 0001612  99.2650 260.8665 13.19726610177103
ONEWEB-0500             
1 54118U 22138F   26170.63811874  .00000102  00000+0  22336-3 0  9990
2 54118  87.9179 304.4779 0001978 100.8513 259.2842 13.19724397177158
ONEWEB-0501             
1 54119U 22138G   26170.81976311 -.00000016  00000+0 -71824-4 0  9992
2 54119  87.9182 304.4411 0001486 107.8949 252.2346 13.19724169177159
ONEWEB-0502             
1 54120U 22138H   26170.80554240  .00000033  00000+0  49341-4 0  9992
2 54120  87.9181 304.4331 0001602  97.5894 262.5421 13.19724483177174
ONEWEB-0503             
1 54121U 22138J   26170.64285871  .00000077  00000+0  16064-3 0  9999
2 54121  87.9184 304.4714 0001912  91.1670 268.9682 13.19724985177142
ONEWEB-0504             
1 54122U 22138K   26170.78185962  .00000088  00000+0  18790-3 0  9995
2 54122  87.9183 304.4485 0001647  97.6047 262.5273 13.19725389177179
ONEWEB-0505             
1 54123U 22138L   26170.77869879 -.00000008  00000+0 -52193-4 0  9991
2 54123  87.9188 304.4494 0001331 102.5062 257.6220 13.19726872177151
ONEWEB-0506             
1 54124U 22138M   26170.75341916 -.00000111  00000+0 -30868-3 0  9996
2 54124  87.9182 304.4523 0001543 103.6433 256.4872 13.19723631177147
ONEWEB-0507             
1 54125U 22138N   26170.77396150  .00000076  00000+0  15705-3 0  9990
2 54125  87.9171 304.4602 0001702 103.1592 256.9731 13.19725482177192
ONEWEB-0508             
1 54126U 22138P   26170.77079501  .00000061  00000+0  12001-3 0  9999
2 54126  87.9171 304.4603 0001579 110.9020 249.2282 13.19724988177172
ONEWEB-0509             
1 54127U 22138Q   26170.82133678  .00000003  00000+0 -24661-4 0  9995
2 54127  87.9183 304.4400 0001729 101.2828 258.8499 13.19725319177150
ONEWEB-0510             
1 54128U 22138R   26170.78350577  .00000046  00000+0  82059-4 0  9991
2 54128  87.9200 273.9185 0002390  94.1921 265.9486 13.20772693179628
ONEWEB-0511             
1 54129U 22138S   26170.81818290 -.00000031  00000+0 -10934-3 0  9995
2 54129  87.9179 304.4429 0001701  92.7236 267.4091 13.19726865177189
ONEWEB-0512             
1 54130U 22138T   26170.81028246 -.00000025  00000+0 -95259-4 0  9998
2 54130  87.9171 304.4496 0001538  98.0043 262.1265 13.19724713177152
ONEWEB-0513             
1 54131U 22138U   26170.81481572  .00000333  00000+0  79285-3 0  9994
2 54131  87.9180 304.3925 0000905  78.0659 282.0576 13.20271900177060
ONEWEB-0514             
1 54132U 22138V   26170.59862785  .00000091  00000+0  19589-3 0  9991
2 54132  87.9182 304.4858 0002013  96.8466 263.2896 13.19725438177148
ONEWEB-0515             
1 54133U 22138W   26170.77003859  .00000042  00000+0  71637-4 0  9990
2 54133  87.9202 273.9159 0002792 108.3211 251.8227 13.20770733179645
ONEWEB-0516             
1 54134U 22138X   26170.80080033  .00000062  00000+0  12208-3 0  9994
2 54134  87.9170 304.4517 0001879 104.2608 255.8733 13.19725322177172
ONEWEB-0517             
1 54135U 22138Y   26170.78027379  .00000052  00000+0  97509-4 0  9993
2 54135  87.9178 304.4481 0001913  89.9946 270.1406 13.19724712177173
ONEWEB-0518             
1 54136U 22138Z   26170.64760150  .00000036  00000+0  56895-4 0  9995
2 54136  87.9171 304.4842 0001887 105.5178 254.6163 13.19727956177158
ONEWEB-0519             
1 54137U 22138AA  26170.82450213 -.00000006  00000+0 -46886-4 0  9990
2 54137  87.9185 304.4405 0001877  92.7513 267.3835 13.19726797177180
ONEWEB-0520             
1 54138U 22138AB  26170.78343851  .00000083  00000+0  17385-3 0  9999
2 54138  87.9182 304.4486 0001637 103.7801 256.3514 13.19725061177167
ONEWEB-0521             
1 54139U 22138AC  26170.81660045 -.00000015  00000+0 -69589-4 0  9992
2 54139  87.9184 304.4307 0001916  92.4191 267.7162 13.19725712177111
